[{"OBJECT_NAME":"STARLINK-35176","OBJECT_ID":"2025-211L","EPOCH":"2026-03-09T16:44:10.606272","MEAN_MOTION":15.05651401,"ECCENTRICITY":0.00011357,"INCLINATION":97.602,"RA_OF_ASC_NODE":114.0831,"ARG_OF_PERICENTER":119.4323,"MEAN_ANOMALY":240.7017,"EPHEMERIS_TYPE":0,"CLASSIFICATION_TYPE":"U","NORAD_CAT_ID":65662,"ELEMENT_SET_NO":999,"REV_AT_EPOCH":2704,"BSTAR":0.00026575317,"MEAN_MOTION_DOT":3.776e-5,"MEAN_MOTION_DDOT":0},{"OBJECT_NAME":"CZ-6A DEB","OBJECT_ID":"2024-140VD","EPOCH":"2026-03-09T13:59:50.309088","MEAN_MOTION":14.67840458,"ECCENTRICITY":0.0170049,"INCLINATION":89.0158,"RA_OF_ASC_NODE":282.3552,"ARG_OF_PERICENTER":150.1699,"MEAN_ANOMALY":210.9347,"EPHEMERIS_TYPE":0,"CLASSIFICATION_TYPE":"U","NORAD_CAT_ID":61340,"ELEMENT_SET_NO":999,"REV_AT_EPOCH":8091,"BSTAR":0.00043795,"MEAN_MOTION_DOT":3.137e-5,"MEAN_MOTION_DDOT":0}]
